SAUDISAT 1C (SO-50)     
1 27607U 02058C   26065.44752584  .00002421  00000+0  30257-3 0  9993
2 27607  64.5519  86.7998 0075186 281.2996  77.9668 14.82767672249227
SAUDISAT 2              
1 28371U 04025F   26065.40479908  .00000509  00000+0  12500-3 0  9996
2 28371  98.5496  62.7444 0023566 251.7230 108.1403 14.56613118150787
SAUDISAT 3              
1 31118U 07012B   26065.30108386  .00000557  00000+0  98177-4 0  9994
2 31118  98.1346  15.7070 0014335 189.6683 170.4250 14.71350131 12619
PISAT                   
1 41784U 16059B   26065.82771350  .00001573  00000+0  27606-3 0  9996
2 41784  97.8191  70.6936 0029316 169.7599 190.4210 14.68765734504714
FLYING LAPTOP           
1 42831U 17042G   26065.84385751  .00005714  00000+0  45626-3 0  9994
2 42831  97.4265 225.6450 0018910 104.6059 255.7264 15.00497012471104
SALSAT                  
1 46495U 20068K   26065.39904136  .00011274  00000+0  41380-3 0  9991
2 46495  97.8855  62.3380 0008503 310.6744  49.3754 15.28102969299651
