[{"OBJECT_NAME":"SAUDISAT 1C (SO-50)","OBJECT_ID":"2002-058C","EPOCH":"2026-03-06T10:44:26.232576","MEAN_MOTION":14.82767672,"ECCENTRICITY":0.0075186,"INCLINATION":64.5519,"RA_OF_ASC_NODE":86.7998,"ARG_OF_PERICENTER":281.2996,"MEAN_ANOMALY":77.9668,"EPHEMERIS_TYPE":0,"CLASSIFICATION_TYPE":"U","NORAD_CAT_ID":27607,"ELEMENT_SET_NO":999,"REV_AT_EPOCH":24922,"BSTAR":0.00030257156,"MEAN_MOTION_DOT":2.421e-5,"MEAN_MOTION_DDOT":0},{"OBJECT_NAME":"SAUDISAT 2","OBJECT_ID":"2004-025F","EPOCH":"2026-03-06T09:42:54.640512","MEAN_MOTION":14.56613118,"ECCENTRICITY":0.00235668,"INCLINATION":98.5496,"RA_OF_ASC_NODE":62.7444,"ARG_OF_PERICENTER":251.723,"MEAN_ANOMALY":108.1403,"EPHEMERIS_TYPE":0,"CLASSIFICATION_TYPE":"U","NORAD_CAT_ID":28371,"ELEMENT_SET_NO":999,"REV_AT_EPOCH":15078,"BSTAR":0.00012499554,"MEAN_MOTION_DOT":5.09e-6,"MEAN_MOTION_DDOT":0},{"OBJECT_NAME":"SAUDISAT 3","OBJECT_ID":"2007-012B","EPOCH":"2026-03-06T07:13:33.645504","MEAN_MOTION":14.71350131,"ECCENTRICITY":0.00143359,"INCLINATION":98.1346,"RA_OF_ASC_NODE":15.707,"ARG_OF_PERICENTER":189.6683,"MEAN_ANOMALY":170.425,"EPHEMERIS_TYPE":0,"CLASSIFICATION_TYPE":"U","NORAD_CAT_ID":31118,"ELEMENT_SET_NO":999,"REV_AT_EPOCH":1261,"BSTAR":9.8176571e-5,"MEAN_MOTION_DOT":5.57e-6,"MEAN_MOTION_DDOT":0},{"OBJECT_NAME":"PISAT","OBJECT_ID":"2016-059B","EPOCH":"2026-03-06T19:51:54.446400","MEAN_MOTION":14.68765734,"ECCENTRICITY":0.0029316,"INCLINATION":97.8191,"RA_OF_ASC_NODE":70.6936,"ARG_OF_PERICENTER":169.7599,"MEAN_ANOMALY":190.421,"EPHEMERIS_TYPE":0,"CLASSIFICATION_TYPE":"U","NORAD_CAT_ID":41784,"ELEMENT_SET_NO":999,"REV_AT_EPOCH":50471,"BSTAR":0.00027606,"MEAN_MOTION_DOT":1.573e-5,"MEAN_MOTION_DDOT":0},{"OBJECT_NAME":"FLYING LAPTOP","OBJECT_ID":"2017-042G","EPOCH":"2026-03-06T20:15:09.288864","MEAN_MOTION":15.00497012,"ECCENTRICITY":0.001891,"INCLINATION":97.4265,"RA_OF_ASC_NODE":225.645,"ARG_OF_PERICENTER":104.6059,"MEAN_ANOMALY":255.7264,"EPHEMERIS_TYPE":0,"CLASSIFICATION_TYPE":"U","NORAD_CAT_ID":42831,"ELEMENT_SET_NO":999,"REV_AT_EPOCH":47110,"BSTAR":0.00045626,"MEAN_MOTION_DOT":5.714e-5,"MEAN_MOTION_DDOT":0},{"OBJECT_NAME":"SALSAT","OBJECT_ID":"2020-068K","EPOCH":"2026-03-06T09:34:37.173504","MEAN_MOTION":15.28102969,"ECCENTRICITY":0.00085035,"INCLINATION":97.8855,"RA_OF_ASC_NODE":62.338,"ARG_OF_PERICENTER":310.6744,"MEAN_ANOMALY":49.3754,"EPHEMERIS_TYPE":0,"CLASSIFICATION_TYPE":"U","NORAD_CAT_ID":46495,"ELEMENT_SET_NO":999,"REV_AT_EPOCH":29965,"BSTAR":0.00041380483,"MEAN_MOTION_DOT":0.00011274,"MEAN_MOTION_DDOT":0}]
